#aV2024 10  8  0  0  0.00000000     288 DD+AD WGS84 FIT  NGA
## 2335 172800.00000000   300.00000000 60591 0.0000000000000
+   31     2  3  4  5  6  7  8  9 10 11 12 13 14 15 16 17 18
+         19 20 21 22 23 24 25 26 27 28 29 30 31 32  0  0  0
+          0  0  0  0  0  0  0  0  0  0  0  0  0  0  0  0  0
+          0  0  0  0  0  0  0  0  0  0  0  0  0  0  0  0  0
+          0  0  0  0  0  0  0  0  0  0  0  0  0  0  0  0  0
++         2  2  2  2  2  2  2  2  2  2  2  2  2  2  2  2  2
++         2  2  2  2  2  2  2  2  2  2  2  2  2  2  0  0  0
++         0  0  0  0  0  0  0  0  0  0  0  0  0  0  0  0  0
++         0  0  0  0  0  0  0  0  0  0  0  0  0  0  0  0  0
++         0  0  0  0  0  0  0  0  0  0  0  0  0  0  0  0  0
%c cc cc ccc ccc cccc cccc cccc cccc ccccc ccccc ccccc ccccc
%c cc cc ccc ccc cccc cccc cccc cccc ccccc ccccc ccccc ccccc
%f  0.0000000  0.000000000  0.00000000000  0.000000000000000
%f  0.0000000  0.000000000  0.00000000000  0.000000000000000
%i    0    0    0    0      0      0      0      0         0
%i    0    0    0    0      0      0      0      0         0
/*      NGA, ST. LOUIS,MO.                                  
/*   EPHEMERIS COMPUTED FROM 2 DAYS OF DATA                 
/*   EPOCHA v9 SMOOTHER                                     
/*   G2296 IERS2010 SATIGS SATAPC                           
*  2024 10  8  7 15  0.00000000
P  2  22086.467451  12257.927076   9217.167579   -341.692667                    
V  2   6526.518290   8999.323236 -28775.285029      0.081824                    
P  3  14502.710255   2430.546360  21944.738592    563.490456                    
V  3  -8830.693355  26785.769886   2952.238355      0.122088                    
P  4  25320.783270   1462.804260   8148.743681    457.847775                    
V  4  -9749.928054   4031.073461  29475.754832      0.068780                    
P  5  -7446.296113 -18365.139797 -17833.763052   -189.102190                    
V  5   7380.101112 -21065.571437  18866.850042     -0.012170                    
P  6    797.362341 -18405.139352  19159.341535    -23.173777                    
V  6  16472.951167  17687.219163  16466.542398     -0.272353                    
P  7  17209.720551  -1833.881951 -19738.886219    -29.681159                    
V  7  16535.770738  20284.897180  11762.072480      0.036216                    
P  8  18540.669845   8311.111659 -17444.555949    377.689037                    
V  8 -20800.731422   6679.573468 -18617.060663      0.118965                    
P  9  25553.866767  -7173.075123  -1764.050498    389.466950                    
V  9   2701.529230   2256.236268  31574.726484      0.164250                    
P 10 -10291.878309  24048.819620  -3161.412245   -151.105755                    
V 10   -804.166990  -4818.517108 -32197.415882     -0.131461                    
P 11 -11491.113984 -22724.496148   7695.053132   -742.144093                    
V 11   7974.553825   6036.913473  29800.626699     -0.032436                    
P 12 -13238.162529  -7327.608934  21549.252285   -543.621442                    
V 12  10831.604220 -25854.922471  -2066.552690     -0.026920                    
P 13 -10216.797993 -13559.054734 -20716.032619    680.425376                    
V 13  25603.363546  -2216.067004 -11071.081668      0.018487                    
P 14  13088.579182 -21925.237135  -6821.513890    512.816990                    
V 14    181.468025   9407.852972 -29915.827323      0.084420                    
P 15 -19453.277331  -6463.506547 -17495.283868    213.241317                    
V 15  19217.927574  -9211.225066 -18364.293775      0.044477                    
P 16   2464.956205  21484.827134 -15450.946237   -160.524037                    
V 16  -9622.524788  16753.732217  22693.204308      0.100356                    
P 17  16462.771075 -13679.893479  16258.631619    602.599853                    
V 17  19809.853435  -1255.396155 -21501.418272     -0.125554                    
P 18 -16071.977322   3061.547704 -20946.771407   -657.131772                    
V 18 -16766.930145 -20606.963258   9621.245089     -0.015269                    
P 19   7139.978526 -14947.418670  20514.422754    547.849082                    
V 19  26461.436796  -1469.539743 -10621.846716      0.047444                    
P 20  -2101.109120 -25286.247687  -8032.713670    369.881904                    
V 20   4097.964496  -9780.700949  29304.576204     -0.003636                    
P 21  21279.969074  16553.442217   3545.790172    100.215659                    
V 21   1576.797176   3988.275469 -30666.382728     -0.007852                    
P 22   9428.906375 -24961.957831   1919.425730    -69.123764                    
V 22   3104.388397   -748.912773 -31428.939799     -0.034239                    
P 23 -15284.882917  15316.980975 -15214.270902    337.031773                    
V 23   3990.470373 -19087.933165 -23395.994440      0.082305                    
P 24 -21796.782819 -14169.784218   5948.458953   -485.376961                    
V 24  -3721.705019  -7861.270471 -29673.137719      0.010113                    
P 25 -16530.406562   6958.899079  19161.932350    499.575298                    
V 25   5954.874260 -24527.972704  14057.161627     -0.000706                    
P 26  -3427.735831  25889.132878  -3703.130446     60.960629                    
V 26  -4992.311615   3503.127648  30837.753997     -0.091881                    
P 27   7562.796454  13902.626985 -21672.010702    -34.412857                    
V 27 -26133.860193   5840.384455  -5026.842414     -0.002665                    
P 28  -2471.047346  17508.202387  19804.948464   -438.536668                    
V 28 -18130.589917 -17506.370642  13207.546730     -0.131087                    
P 29 -26423.095764   3314.746220     49.407296   -572.739524                    
V 29   -196.926599  -2445.261734  31854.366340      0.026301                    
P 30   9810.262207 -12425.320827 -21154.310257   -306.567714                    
V 30  18544.654671  20092.495319  -3443.991247      0.073918                    
P 31   7790.952233  22141.202783  11820.226917   -223.685362                    
V 31 -12227.049581  -9994.331986  26628.950768      0.005295                    
P 32 -13920.566388  15077.593795  16965.792948   -589.156895                    
V 32 -21112.014212   2693.166008 -20170.752331      0.042616                    
EOF
